[
    {
        "Altitude(m)": 702684.2916457849,
        "Argument of Periapsis(deg)": 0.0,
        "Eccentricity": 0.0,
        "Inclination(deg)": 45.0,
        "Latitude(deg)": 11.499119750485804,
        "Longitude(deg)": 118.35684192965671,
        "Mean Anomaly(deg)": 163.6364,
        "RAAN(deg)": 50.0,
        "Satellite Name": "Constellation 1 230",
        "Satellite Number": 230,
        "Semi-Major Axis(m)": 7083131.272910544,
        "Time(s)": 0
    },
    {
        "Altitude(m)": 702684.4449920949,
        "Argument of Periapsis(deg)": 5.994800624540561e-05,
        "Eccentricity": 0.0,
        "Inclination(deg)": 45.0,
        "Latitude(deg)": 11.456797723270407,
        "Longitude(deg)": 118.39735945925601,
        "Mean Anomaly(deg)": 163.6971011402499,
        "RAAN(deg)": 49.999943410834426,
        "Satellite Name": "Constellation 1 230",
        "Satellite Number": 230,
        "Semi-Major Axis(m)": 7083131.272910544,
        "Time(s)": 1
    },
    {
        "Altitude(m)": 702684.6174157327,
        "Argument of Periapsis(deg)": 0.00011989601249081122,
        "Eccentricity": 0.0,
        "Inclination(deg)": 45.0,
        "Latitude(deg)": 11.414468806008617,
        "Longitude(deg)": 118.43786368313528,
        "Mean Anomaly(deg)": 163.75780228049985,
        "RAAN(deg)": 49.999886821668866,
        "Satellite Name": "Constellation 1 230",
        "Satellite Number": 230,
        "Semi-Major Axis(m)": 7083131.272910544,
        "Time(s)": 2
    },
    {
        "Altitude(m)": 702684.8089341997,
        "Argument of Periapsis(deg)": 0.00017984401873621686,
        "Eccentricity": 0.0,
        "Inclination(deg)": 45.0,
        "Latitude(deg)": 11.372133027023851,
        "Longitude(deg)": 118.47835465334245,
        "Mean Anomaly(deg)": 163.8185034207497,
        "RAAN(deg)": 49.99983023250329,
        "Satellite Name": "Constellation 1 230",
        "Satellite Number": 230,
        "Semi-Major Axis(m)": 7083131.272910544,
        "Time(s)": 3
    },
    {
        "Altitude(m)": 702685.019564911,
        "Argument of Periapsis(deg)": 0.00023979202498162244,
        "Eccentricity": 0.0,
        "Inclination(deg)": 45.0,
        "Latitude(deg)": 11.329790414613461,
        "Longitude(deg)": 118.51883242190002,
        "Mean Anomaly(deg)": 163.8792045609996,
        "RAAN(deg)": 49.99977364333772,
        "Satellite Name": "Constellation 1 230",
        "Satellite Number": 230,
        "Semi-Major Axis(m)": 7083131.272910544,
        "Time(s)": 4
    },
    {
        "Altitude(m)": 702685.2493251982,
        "Argument of Periapsis(deg)": 0.00029974003122702807,
        "Eccentricity": 0.0,
        "Inclination(deg)": 45.0,
        "Latitude(deg)": 11.287440997049622,
        "Longitude(deg)": 118.5592970408038,
        "Mean Anomaly(deg)": 163.9399057012495,
        "RAAN(deg)": 49.99971705417215,
        "Satellite Name": "Constellation 1 230",
        "Satellite Number": 230,
        "Semi-Major Axis(m)": 7083131.272910544,
        "Time(s)": 5
    },
    {
        "Altitude(m)": 702685.4982323265,
        "Argument of Periapsis(deg)": 0.00035968803747243373,
        "Eccentricity": 0.0,
        "Inclination(deg)": 45.0,
        "Latitude(deg)": 11.24508480257887,
        "Longitude(deg)": 118.59974856202408,
        "Mean Anomaly(deg)": 164.0006068414994,
        "RAAN(deg)": 49.999660465006585,
        "Satellite Name": "Constellation 1 230",
        "Satellite Number": 230,
        "Semi-Major Axis(m)": 7083131.272910544,
        "Time(s)": 6
    },
    {
        "Altitude(m)": 702685.7663034569,
        "Argument of Periapsis(deg)": 0.00041963604371783933,
        "Eccentricity": 0.0,
        "Inclination(deg)": 45.0,
        "Latitude(deg)": 11.202721859422669,
        "Longitude(deg)": 118.64018686940805,
        "Mean Anomaly(deg)": 164.06130798174928,
        "RAAN(deg)": 49.99960387584101,
        "Satellite Name": "Constellation 1 230",
        "Satellite Number": 230,
        "Semi-Major Axis(m)": 7083131.272910544,
        "Time(s)": 7
    },
    {
        "Altitude(m)": 702686.053555692,
        "Argument of Periapsis(deg)": 0.0004795840499632449,
        "Eccentricity": 0.0,
        "Inclination(deg)": 45.0,
        "Latitude(deg)": 11.160352195776712,
        "Longitude(deg)": 118.68061235106835,
        "Mean Anomaly(deg)": 164.1220091219992,
        "RAAN(deg)": 49.999547286675444,
        "Satellite Name": "Constellation 1 230",
        "Satellite Number": 230,
        "Semi-Major Axis(m)": 7083131.272910544,
        "Time(s)": 8
    },
    {
        "Altitude(m)": 702686.3600060361,
        "Argument of Periapsis(deg)": 0.0005395320562086505,
        "Eccentricity": 0.0,
        "Inclination(deg)": 45.0,
        "Latitude(deg)": 11.11797583981215,
        "Longitude(deg)": 118.72102489080049,
        "Mean Anomaly(deg)": 164.1827102622491,
        "RAAN(deg)": 49.99949069750987,
        "Satellite Name": "Constellation 1 230",
        "Satellite Number": 230,
        "Semi-Major Axis(m)": 7083131.272910544,
        "Time(s)": 9
    },
    {
        "Altitude(m)": 702686.685671424,
        "Argument of Periapsis(deg)": 0.0005994800624540561,
        "Eccentricity": 0.0,
        "Inclination(deg)": 45.0,
        "Latitude(deg)": 11.075592819674805,
        "Longitude(deg)": 118.7614245404716,
        "Mean Anomaly(deg)": 164.24341140249905,
        "RAAN(deg)": 49.99943410834431,
        "Satellite Name": "Constellation 1 230",
        "Satellite Number": 230,
        "Semi-Major Axis(m)": 7083131.272910544,
        "Time(s)": 10
    },
    {
        "Altitude(m)": 702687.030568698,
        "Argument of Periapsis(deg)": 0.0006594280686994618,
        "Eccentricity": 0.0,
        "Inclination(deg)": 45.0,
        "Latitude(deg)": 11.033203163485638,
        "Longitude(deg)": 118.8018113519231,
        "Mean Anomaly(deg)": 164.3041125427489,
        "RAAN(deg)": 49.999377519178736,
        "Satellite Name": "Constellation 1 230",
        "Satellite Number": 230,
        "Semi-Major Axis(m)": 7083131.272910544,
        "Time(s)": 11
    },
    {
        "Altitude(m)": 702687.3947146281,
        "Argument of Periapsis(deg)": 0.0007193760749448675,
        "Eccentricity": 0.0,
        "Inclination(deg)": 45.0,
        "Latitude(deg)": 10.99080689934081,
        "Longitude(deg)": 118.84218537697102,
        "Mean Anomaly(deg)": 164.3648136829988,
        "RAAN(deg)": 49.99932093001317,
        "Satellite Name": "Constellation 1 230",
        "Satellite Number": 230,
        "Semi-Major Axis(m)": 7083131.272910544,
        "Time(s)": 12
    },
    {
        "Altitude(m)": 702687.778125899,
        "Argument of Periapsis(deg)": 0.000779324081190273,
        "Eccentricity": 0.0,
        "Inclination(deg)": 45.0,
        "Latitude(deg)": 10.948404055311743,
        "Longitude(deg)": 118.88254666740563,
        "Mean Anomaly(deg)": 164.4255148232487,
        "RAAN(deg)": 49.999264340847596,
        "Satellite Name": "Constellation 1 230",
        "Satellite Number": 230,
        "Semi-Major Axis(m)": 7083131.272910544,
        "Time(s)": 13
    },
    {
        "Altitude(m)": 702688.1808191071,
        "Argument of Periapsis(deg)": 0.0008392720874356787,
        "Eccentricity": 0.0,
        "Inclination(deg)": 45.0,
        "Latitude(deg)": 10.905994659445282,
        "Longitude(deg)": 118.9228952749921,
        "Mean Anomaly(deg)": 164.4862159634986,
        "RAAN(deg)": 49.99920775168202,
        "Satellite Name": "Constellation 1 230",
        "Satellite Number": 230,
        "Semi-Major Axis(m)": 7083131.272910544,
        "Time(s)": 14
    },
    {
        "Altitude(m)": 702688.6028107809,
        "Argument of Periapsis(deg)": 0.0008992200936810842,
        "Eccentricity": 0.0,
        "Inclination(deg)": 45.0,
        "Latitude(deg)": 10.863578739763803,
        "Longitude(deg)": 118.96323108337316,
        "Mean Anomaly(deg)": 164.5469171037485,
        "RAAN(deg)": 49.99915116251646,
        "Satellite Name": "Constellation 1 230",
        "Satellite Number": 230,
        "Semi-Major Axis(m)": 7083131.272910544,
        "Time(s)": 15
    },
    {
        "Altitude(m)": 702689.0441173494,
        "Argument of Periapsis(deg)": 0.0009591680999264898,
        "Eccentricity": 0.0,
        "Inclination(deg)": 45.0,
        "Latitude(deg)": 10.82115632426502,
        "Longitude(deg)": 119.00355448045745,
        "Mean Anomaly(deg)": 164.6076182439984,
        "RAAN(deg)": 49.99909457335089,
        "Satellite Name": "Constellation 1 230",
        "Satellite Number": 230,
        "Semi-Major Axis(m)": 7083131.272910544,
        "Time(s)": 16
    },
    {
        "Altitude(m)": 702689.5047551786,
        "Argument of Periapsis(deg)": 0.0010191161061718953,
        "Eccentricity": 0.0,
        "Inclination(deg)": 45.0,
        "Latitude(deg)": 10.778727440922616,
        "Longitude(deg)": 119.04386534983729,
        "Mean Anomaly(deg)": 164.6683193842483,
        "RAAN(deg)": 49.999037984185314,
        "Satellite Name": "Constellation 1 230",
        "Satellite Number": 230,
        "Semi-Major Axis(m)": 7083131.272910544,
        "Time(s)": 17
    },
    {
        "Altitude(m)": 702689.9847405362,
        "Argument of Periapsis(deg)": 0.001079064112417301,
        "Eccentricity": 0.0,
        "Inclination(deg)": 45.0,
        "Latitude(deg)": 10.73629211768598,
        "Longitude(deg)": 119.084163743177,
        "Mean Anomaly(deg)": 164.72902052449817,
        "RAAN(deg)": 49.99898139501975,
        "Satellite Name": "Constellation 1 230",
        "Satellite Number": 230,
        "Semi-Major Axis(m)": 7083131.272910544,
        "Time(s)": 18
    }
]